OBJECT_NAME,OBJECT_ID,EPOCH,MEAN_MOTION,ECCENTRICITY,INCLINATION,RA_OF_ASC_NODE,ARG_OF_PERICENTER,MEAN_ANOMALY,EPHEMERIS_TYPE,CLASSIFICATION_TYPE,NORAD_CAT_ID,ELEMENT_SET_NO,REV_AT_EPOCH,BSTAR,MEAN_MOTION_DOT,MEAN_MOTION_DDOT
STARLINK-36055,2025-280AB,2026-06-15T03:55:08.118624,14.98332573,.00030873,70.0022,88.8095,272.6946,87.3860,0,U,66846,999,3068,.28481556E-3,.3307E-4,0
STARLINK-36061,2025-280AC,2026-06-15T04:07:09.557760,14.98334502,.00026297,70.0026,88.8366,272.4148,87.6710,0,U,66847,999,3067,.94393151E-4,.1034E-4,0
STARLINK-36091,2025-281A,2026-06-15T06:13:25.351680,15.27576020,.00011338,43.0002,152.7929,282.7376,77.3348,0,U,66848,999,2978,.40725342E-3,.1096E-3,0
STARLINK-36102,2025-281B,2026-06-14T15:51:12.180960,15.27577519,.00015804,43.0003,156.0348,264.9457,95.1214,0,U,66849,999,3101,.49478012E-3,.13377E-3,0
STARLINK-36105,2025-281C,2026-06-14T15:45:38.687328,15.27605580,.00036551,42.9950,156.0029,283.9464,76.0981,0,U,66850,999,3101,.75226486E-3,.20515E-3,0
STARLINK-36094,2025-281D,2026-06-14T05:54:48.420000,15.27597228,.0002996,43.0148,158.0913,284.0956,75.9563,0,U,66851,999,3095,.83045E-3,.22673E-3,0
STARLINK-35992,2025-281E,2026-06-14T16:48:20.714400,15.27604545,.00030605,43.0041,155.4725,277.1708,82.8795,0,U,66852,999,3102,.71054307E-3,.19358E-3,0
STARLINK-35986,2025-281F,2026-06-14T16:42:48.672288,15.27590374,.00000705,43.0018,155.4432,231.9288,128.1557,0,U,66853,999,3102,.79503236E-3,.21687E-3,0
STARLINK-36087,2025-281G,2026-06-14T16:37:14.761344,15.27577555,.000024,43.0047,155.4140,191.8772,168.2074,0,U,66854,999,3102,.7462698E-3,.20329E-3,0
STARLINK-36090,2025-281H,2026-06-14T16:22:26.627232,15.27590531,.00015822,43.0014,155.3311,273.9545,86.1126,0,U,66855,999,3102,.36354822E-3,.9758E-4,0
STARLINK-36072,2025-281J,2026-06-15T06:18:57.395520,15.27593358,.00012196,42.9981,152.8205,257.5466,102.5249,0,U,66856,999,3110,.46493738E-3,.12559E-3,0
STARLINK-36083,2025-281K,2026-06-15T06:07:51.998016,15.27580418,.00010245,43.0031,152.7611,259.3189,100.7547,0,U,66857,999,3110,.43506442E-3,.11729E-3,0
STARLINK-35118,2025-281L,2026-06-13T06:42:49.109184,15.27617362,.000196,43.0053,163.7322,276.8193,83.2436,0,U,66858,999,3080,.61863E-3,.1682E-3,0
STARLINK-35646,2025-281M,2026-06-14T06:09:38.371104,15.27592867,.0003083,42.9994,158.1596,282.4671,77.5836,0,U,66859,999,3095,.97349E-3,.26636E-3,0
STARLINK-35987,2025-281N,2026-06-14T19:52:58.454976,15.27643398,.00000944,42.9987,154.7090,257.9510,102.1331,0,U,66860,999,3104,.72772807E-3,.19856E-3,0
STARLINK-35991,2025-281P,2026-06-14T16:31:43.760352,15.27591815,.00011835,43.0034,155.3846,265.3995,94.6722,0,U,66861,999,3102,.53712504E-3,.14553E-3,0
STARLINK-35974,2025-281Q,2026-06-14T06:04:03.685152,15.27583936,.0002974,43.0015,158.1316,278.0069,82.0445,0,U,66862,999,3095,.5518E-3,.14956E-3,0
STARLINK-36134,2025-281R,2026-06-14T16:16:53.501664,15.27587759,.00020058,42.9980,155.2998,267.0801,92.9821,0,U,66863,999,3102,.75656789E-3,.20621E-3,0
STARLINK-36070,2025-281S,2026-06-14T15:56:44.998944,15.27589390,.00020858,42.9983,156.0616,270.9123,89.1490,0,U,66864,999,3101,.78523879E-3,.21415E-3,0
STARLINK-36117,2025-281T,2026-06-14T16:27:59.090112,15.27590942,.00035582,43.0026,155.3625,264.7234,95.3211,0,U,66865,999,3102,.75715576E-3,.20641E-3,0
STARLINK-36126,2025-281U,2026-06-15T06:20:48.349536,15.27593361,.00019329,42.9969,152.8283,265.6385,94.4246,0,U,66866,999,3109,.4123599E-3,.11107E-3,0
STARLINK-36101,2025-281V,2026-06-15T06:15:16.225344,15.27599839,.00007233,42.9983,152.7971,258.7957,101.2814,0,U,66867,999,3109,.50308965E-3,.13616E-3,0
STARLINK-36108,2025-281W,2026-06-15T06:09:42.964128,15.27583736,.00007441,43.0009,152.7688,267.1131,92.9635,0,U,66868,999,3109,.40655193E-3,.10943E-3,0
STARLINK-36092,2025-281X,2026-06-14T15:53:03.249024,15.27581018,.00005224,42.9949,156.0389,305.1218,54.9584,0,U,66869,999,3100,.85198274E-3,.23257E-3,0
STARLINK-36114,2025-281Y,2026-06-14T15:47:28.449024,15.27593543,.00034773,42.9926,156.0064,279.6081,80.4378,0,U,66870,999,3100,.54142323E-3,.14674E-3,0
STARLINK-36095,2025-281Z,2026-06-14T06:17:00.817728,15.27586897,.0004401,43.0016,158.1974,280.6340,79.4016,0,U,66871,999,3093,.63226E-3,.17183E-3,0
STARLINK-36082,2025-281AA,2026-06-14T06:11:28.616640,15.27599803,.0001665,43.0024,158.1672,279.0999,80.9664,0,U,66872,999,3094,.53983E-3,.14631E-3,0
STARLINK-36128,2025-281AB,2026-06-15T05:29:00.480192,15.27585365,.00033586,42.9986,152.5459,271.4698,88.5769,0,U,66873,999,3104,.47747379E-3,.12903E-3,0
STARLINK-36129,2025-281AC,2026-06-14T06:05:54.652992,15.27590069,.0001359,43.0001,158.1362,273.1672,86.9024,0,U,66874,999,3094,.82477E-3,.2251E-3,0
STARLINK-36053,2025-281AD,2026-06-14T16:50:11.760000,15.27590891,.00025122,43.0003,155.4744,274.7522,85.3043,0,U,66875,999,3096,.8135122E-3,.222E-3,0
