STARLINK-36055          
1 66846U 25280AB  26166.16328841  .00003307  00000+0  28482-3 0  9990
2 66846  70.0022  88.8095 0003087 272.6946  87.3860 14.98332573 30689
STARLINK-36061          
1 66847U 25280AC  26166.17163840  .00001034  00000+0  94393-4 0  9998
2 66847  70.0026  88.8366 0002629 272.4148  87.6710 14.98334502 30678
STARLINK-36091          
1 66848U 25281A   26166.25932120  .00010960  00000+0  40725-3 0  9991
2 66848  43.0002 152.7929 0001133 282.7376  77.3348 15.27576020 29784
STARLINK-36102          
1 66849U 25281B   26165.66055765  .00013377  00000+0  49478-3 0  9996
2 66849  43.0003 156.0348 0001580 264.9457  95.1214 15.27577519 31019
STARLINK-36105          
1 66850U 25281C   26165.65669777  .00020515  00000+0  75226-3 0  9993
2 66850  42.9950 156.0029 0003655 283.9464  76.0981 15.27605580 31019
STARLINK-36094          
1 66851U 25281D   26165.24639375  .00022673  00000+0  83045-3 0  9995
2 66851  43.0148 158.0913 0002996 284.0956  75.9563 15.27597228 30955
STARLINK-35992          
1 66852U 25281E   26165.70023975  .00019358  00000+0  71054-3 0  9993
2 66852  43.0041 155.4725 0003060 277.1708  82.8795 15.27604545 31025
STARLINK-35986          
1 66853U 25281F   26165.69639667  .00021687  00000+0  79503-3 0  9998
2 66853  43.0018 155.4432 0000070 231.9288 128.1557 15.27590374 31028
STARLINK-36087          
1 66854U 25281G   26165.69253196  .00020329  00000+0  74627-3 0  9992
2 66854  43.0047 155.4140 0000240 191.8772 168.2074 15.27577555 31023
STARLINK-36090          
1 66855U 25281H   26165.68225263  .00009758  00000+0  36355-3 0  9995
2 66855  43.0014 155.3311 0001582 273.9545  86.1126 15.27590531 31022
STARLINK-36072          
1 66856U 25281J   26166.26316430  .00012559  00000+0  46494-3 0  9996
2 66856  42.9981 152.8205 0001219 257.5466 102.5249 15.27593358 31103
STARLINK-36083          
1 66857U 25281K   26166.25546294  .00011729  00000+0  43506-3 0  9998
2 66857  43.0031 152.7611 0001024 259.3189 100.7547 15.27580418 31102
STARLINK-35118          
1 66858U 25281L   26164.27973506  .00016820  00000+0  61863-3 0  9992
2 66858  43.0053 163.7322 0001960 276.8193  83.2436 15.27617362 30803
STARLINK-35646          
1 66859U 25281M   26165.25669411  .00026636  00000+0  97349-3 0  9993
2 66859  42.9994 158.1596 0003083 282.4671  77.5836 15.27592867 30957
STARLINK-35987          
1 66860U 25281N   26165.82845434  .00019856  00000+0  72773-3 0  9999
2 66860  42.9987 154.7090 0000094 257.9510 102.1331 15.27643398 31042
STARLINK-35991          
1 66861U 25281P   26165.68870093  .00014553  00000+0  53713-3 0  9995
2 66861  43.0034 155.3846 0001183 265.3995  94.6722 15.27591815 31027
STARLINK-35974          
1 66862U 25281Q   26165.25282043  .00014956  00000+0  55180-3 0  9998
2 66862  43.0015 158.1316 0002974 278.0069  82.0445 15.27583936 30951
STARLINK-36134          
1 66863U 25281R   26165.67839701  .00020621  00000+0  75657-3 0  9991
2 66863  42.9980 155.2998 0002005 267.0801  92.9821 15.27587759 31026
STARLINK-36070          
1 66864U 25281S   26165.66440971  .00021415  00000+0  78524-3 0  9996
2 66864  42.9983 156.0616 0002085 270.9123  89.1490 15.27589390 31016
STARLINK-36117          
1 66865U 25281T   26165.68610058  .00020641  00000+0  75716-3 0  9994
2 66865  43.0026 155.3625 0003558 264.7234  95.3211 15.27590942 31025
STARLINK-36126          
1 66866U 25281U   26166.26444849  .00011107  00000+0  41236-3 0  9990
2 66866  42.9969 152.8283 0001932 265.6385  94.4246 15.27593361 31096
STARLINK-36101          
1 66867U 25281V   26166.26060446  .00013616  00000+0  50309-3 0  9996
2 66867  42.9983 152.7971 0000723 258.7957 101.2814 15.27599839 31095
STARLINK-36108          
1 66868U 25281W   26166.25674727  .00010943  00000+0  40655-3 0  9992
2 66868  43.0009 152.7688 0000744 267.1131  92.9635 15.27583736 31099
STARLINK-36092          
1 66869U 25281X   26165.66184316  .00023257  00000+0  85198-3 0  9990
2 66869  42.9949 156.0389 0000522 305.1218  54.9584 15.27581018 31002
STARLINK-36114          
1 66870U 25281Y   26165.65796816  .00014674  00000+0  54142-3 0  9993
2 66870  42.9926 156.0064 0003477 279.6081  80.4378 15.27593543 31005
STARLINK-36095          
1 66871U 25281Z   26165.26181502  .00017183  00000+0  63226-3 0  9992
2 66871  43.0016 158.1974 0004401 280.6340  79.4016 15.27586897 30931
STARLINK-36082          
1 66872U 25281AA  26165.25797010  .00014631  00000+0  53983-3 0  9993
2 66872  43.0024 158.1672 0001665 279.0999  80.9664 15.27599803 30945
STARLINK-36128          
1 66873U 25281AB  26166.22847778  .00012903  00000+0  47747-3 0  9990
2 66873  42.9986 152.5459 0003358 271.4698  88.5769 15.27585365 31045
STARLINK-36129          
1 66874U 25281AC  26165.25410478  .00022510  00000+0  82477-3 0  9990
2 66874  43.0001 158.1362 0001359 273.1672  86.9024 15.27590069 30942
STARLINK-36053          
1 66875U 25281AD  26165.70152500  .00022200  00000+0  81351-3 0  9996
2 66875  43.0003 155.4744 0002512 274.7522  85.3043 15.27590891 30961
